CTC1_L_00617001-01
1 17476U 24631JP  26037.47810185  .00000000  00000+0  00000-0 0  9992
2 17476  50.0000   0.0000 0000000   0.0000   0.0000  4.55247068    14
CTC1_L_00617001-02
1 17477U 25076TA  26037.47810185  .00000000  00000+0  00000-0 0  9997
2 17477  50.0000   0.0000 0000000   0.0000  36.0000  4.55247068    14
CTC1_L_00617001-03
1 17478U 23845OB  26037.47810185  .00000000  00000+0  00000-0 0  9990
2 17478  50.0000   0.0000 0000000   0.0000  72.0000  4.55247068    15
CTC1_L_00617001-04
1 17479U 26807EV  26037.47810185  .00000000  00000+0  00000-0 0  9992
2 17479  50.0000   0.0000 0000000   0.0000 108.0000  4.55247068    16
CTC1_L_00617001-05
1 17480U 22795DN  26037.47810185  .00000000  00000+0  00000-0 0  9996
2 17480  50.0000   0.0000 0000000   0.0000 144.0000  4.55247068    18
CTC1_L_00617001-06
1 17481U 26402NO  26037.47810185  .00000000  00000+0  00000-0 0  9996
2 17481  50.0000   0.0000 0000000   0.0000 180.0000  4.55247068    19
CTC1_L_00617001-07
1 17482U 25232LA  26037.47810185  .00000000  00000+0  00000-0 0  9997
2 17482  50.0000   0.0000 0000000   0.0000 216.0000  4.55247068    10
CTC1_L_00617001-08
1 17483U 23039WV  26037.47810185  .00000000  00000+0  00000-0 0  9991
2 17483  50.0000   0.0000 0000000   0.0000 252.0000  4.55247068    11
CTC1_L_00617001-09
1 17484U 26313VX  26037.47810185  .00000000  00000+0  00000-0 0  9990
2 17484  50.0000   0.0000 0000000   0.0000 288.0000  4.55247068    11
CTC1_L_00617001-10
1 17485U 22640PJ  26037.47810185  .00000000  00000+0  00000-0 0  9990
2 17485  50.0000   0.0000 0000000   0.0000 324.0000  4.55247068    13
CTC1_L_00617002-01
1 17486U 24451IK  26037.47810185  .00000000  00000+0  00000-0 0  9993
2 17486  50.0000  30.0000 0000000   0.0000  12.0000  4.55247068    11
CTC1_L_00617002-02
1 17487U 26593TH  26037.47810185  .00000000  00000+0  00000-0 0  9993
2 17487  50.0000  30.0000 0000000   0.0000  48.0000  4.55247068    11
CTC1_L_00617002-03
1 17488U 26800PQ  26037.47810185  .00000000  00000+0  00000-0 0  9995
2 17488  50.0000  30.0000 0000000   0.0000  84.0000  4.55247068    12
CTC1_L_00617002-04
1 17489U 23501AD  26037.47810185  .00000000  00000+0  00000-0 0  9991
2 17489  50.0000  30.0000 0000000   0.0000 120.0000  4.55247068    14
CTC1_L_00617002-05
1 17490U 26874HT  26037.47810185  .00000000  00000+0  00000-0 0  9999
2 17490  50.0000  30.0000 0000000   0.0000 156.0000  4.55247068    15
CTC1_L_00617002-06
1 17491U 25668DF  26037.47810185  .00000000  00000+0  00000-0 0  9990
2 17491  50.0000  30.0000 0000000   0.0000 192.0000  4.55247068    16
CTC1_L_00617002-07
1 17492U 22841BD  26037.47810185  .00000000  00000+0  00000-0 0  9991
2 17492  50.0000  30.0000 0000000   0.0000 228.0000  4.55247068    17
CTC1_L_00617002-08
1 17493U 22681XY  26037.47810185  .00000000  00000+0  00000-0 0  9994
2 17493  50.0000  30.0000 0000000   0.0000 264.0000  4.55247068    18
CTC1_L_00617002-09
1 17494U 25129MB  26037.47810185  .00000000  00000+0  00000-0 0  9995
2 17494  50.0000  30.0000 0000000   0.0000 300.0000  4.55247068    10
CTC1_L_00617002-10
1 17495U 24713DH  26037.47810185  .00000000  00000+0  00000-0 0  9994
2 17495  50.0000  30.0000 0000000   0.0000 336.0000  4.55247068    10
CTC1_L_00617003-01
1 17496U 26253RM  26037.47810185  .00000000  00000+0  00000-0 0  9996
2 17496  50.0000  60.0000 0000000   0.0000  24.0000  4.55247068    18
CTC1_L_00617003-02
1 17497U 26867VQ  26037.47810185  .00000000  00000+0  00000-0 0  9998
2 17497  50.0000  60.0000 0000000   0.0000  60.0000  4.55247068    19
CTC1_L_00617003-03
1 17498U 22752HR  26037.47810185  .00000000  00000+0  00000-0 0  9998
2 17498  50.0000  60.0000 0000000   0.0000  96.0000  4.55247068    19
CTC1_L_00617003-04
1 17499U 26692OU  26037.47810185  .00000000  00000+0  00000-0 0  9996
2 17499  50.0000  60.0000 0000000   0.0000 132.0000  4.55247068    11
CTC1_L_00617003-05
1 17500U 26460IY  26037.47810185  .00000000  00000+0  00000-0 0  9992
2 17500  50.0000  60.0000 0000000   0.0000 168.0000  4.55247068    13
CTC1_L_00617003-06
1 17501U 24938JI  26037.47810185  .00000000  00000+0  00000-0 0  9991
2 17501  50.0000  60.0000 0000000   0.0000 204.0000  4.55247068    15
CTC1_L_00617003-07
1 17502U 25713HI  26037.47810185  .00000000  00000+0  00000-0 0  9994
2 17502  50.0000  60.0000 0000000   0.0000 240.0000  4.55247068    16
CTC1_L_00617003-08
1 17503U 22138PF  26037.47810185  .00000000  00000+0  00000-0 0  9993
2 17503  50.0000  60.0000 0000000   0.0000 276.0000  4.55247068    16
CTC1_L_00617003-09
1 17504U 24685AI  26037.47810185  .00000000  00000+0  00000-0 0  9993
2 17504  50.0000  60.0000 0000000   0.0000 312.0000  4.55247068    18
CTC1_L_00617003-10
1 17505U 24087NX  26037.47810185  .00000000  00000+0  00000-0 0  9990
2 17505  50.0000  60.0000 0000000   0.0000 348.0000  4.55247068    18
CTC1_L_00617004-01
1 17506U 23384GN  26037.47810185  .00000000  00000+0  00000-0 0  9990
2 17506  50.0000  90.0000 0000000   0.0000  36.0000  4.55247068    16
CTC1_L_00617004-02
1 17507U 24642VC  26037.47810185  .00000000  00000+0  00000-0 0  9999
2 17507  50.0000  90.0000 0000000   0.0000  72.0000  4.55247068    17
CTC1_L_00617004-03
1 17508U 24797HZ  26037.47810185  .00000000  00000+0  00000-0 0  9991
2 17508  50.0000  90.0000 0000000   0.0000 108.0000  4.55247068    18
CTC1_L_00617004-04
1 17509U 26878QL  26037.47810185  .00000000  00000+0  00000-0 0  9994
2 17509  50.0000  90.0000 0000000   0.0000 144.0000  4.55247068    19
CTC1_L_00617004-05
1 17510U 23230SJ  26037.47810185  .00000000  00000+0  00000-0 0  9995
2 17510  50.0000  90.0000 0000000   0.0000 180.0000  4.55247068    11
CTC1_L_00617004-06
1 17511U 22966EF  26037.47810185  .00000000  00000+0  00000-0 0  9991
2 17511  50.0000  90.0000 0000000   0.0000 216.0000  4.55247068    12
CTC1_L_00617004-07
1 17512U 23112TH  26037.47810185  .00000000  00000+0  00000-0 0  9996
2 17512  50.0000  90.0000 0000000   0.0000 252.0000  4.55247068    13
CTC1_L_00617004-08
1 17513U 24854QN  26037.47810185  .00000000  00000+0  00000-0 0  9991
2 17513  50.0000  90.0000 0000000   0.0000 288.0000  4.55247068    13
CTC1_L_00617004-09
1 17514U 25911TO  26037.47810185  .00000000  00000+0  00000-0 0  9997
2 17514  50.0000  90.0000 0000000   0.0000 324.0000  4.55247068    15
CTC1_L_00617004-10
1 17515U 22178OW  26037.47810185  .00000000  00000+0  00000-0 0  9990
2 17515  50.0000  90.0000 0000000   0.0000   0.0000  4.55247068    17
CTC1_L_00617005-01
1 17516U 22273SY  26037.47810185  .00000000  00000+0  00000-0 0  9997
2 17516  50.0000 120.0000 0000000   0.0000  48.0000  4.55247068    14
CTC1_L_00617005-02
1 17517U 25432NC  26037.47810185  .00000000  00000+0  00000-0 0  9998
2 17517  50.0000 120.0000 0000000   0.0000  84.0000  4.55247068    15
CTC1_L_00617005-03
1 17518U 23541EE  26037.47810185  .00000000  00000+0  00000-0 0  9998
2 17518  50.0000 120.0000 0000000   0.0000 120.0000  4.55247068    17
CTC1_L_00617005-04
1 17519U 26087KH  26037.47810185  .00000000  00000+0  00000-0 0  9997
2 17519  50.0000 120.0000 0000000   0.0000 156.0000  4.55247068    17
CTC1_L_00617005-05
1 17520U 25697GT  26037.47810185  .00000000  00000+0  00000-0 0  9995
2 17520  50.0000 120.0000 0000000   0.0000 192.0000  4.55247068    19
CTC1_L_00617005-06
1 17521U 23783ZW  26037.47810185  .00000000  00000+0  00000-0 0  9990
2 17521  50.0000 120.0000 0000000   0.0000 228.0000  4.55247068    10
CTC1_L_00617005-07
1 17522U 22320EL  26037.47810185  .00000000  00000+0  00000-0 0  9997
2 17522  50.0000 120.0000 0000000   0.0000 264.0000  4.55247068    11
CTC1_L_00617005-08
1 17523U 22446TP  26037.47810185  .00000000  00000+0  00000-0 0  9997
2 17523  50.0000 120.0000 0000000   0.0000 300.0000  4.55247068    13
CTC1_L_00617005-09
1 17524U 26209Q   26037.47810185  .00000000  00000+0  00000-0 0  9999
2 17524  50.0000 120.0000 0000000   0.0000 336.0000  4.55247068    13
CTC1_L_00617005-10
1 17525U 24191XF  26037.47810185  .00000000  00000+0  00000-0 0  9998
2 17525  50.0000 120.0000 0000000   0.0000  12.0000  4.55247068    15
CTC1_L_00617006-01
1 17526U 24668WO  26037.47810185  .00000000  00000+0  00000-0 0  9998
2 17526  50.0000 150.0000 0000000   0.0000  60.0000  4.55247068    12
CTC1_L_00617006-02
1 17527U 24936OE  26037.47810185  .00000000  00000+0  00000-0 0  9997
2 17527  50.0000 150.0000 0000000   0.0000  96.0000  4.55247068    12
CTC1_L_00617006-03
1 17528U 22032GT  26037.47810185  .00000000  00000+0  00000-0 0  9993
2 17528  50.0000 150.0000 0000000   0.0000 132.0000  4.55247068    14
CTC1_L_00617006-04
1 17529U 26912YK  26037.47810185  .00000000  00000+0  00000-0 0  9995
2 17529  50.0000 150.0000 0000000   0.0000 168.0000  4.55247068    14
CTC1_L_00617006-05
1 17530U 24737HS  26037.47810185  .00000000  00000+0  00000-0 0  9990
2 17530  50.0000 150.0000 0000000   0.0000 204.0000  4.55247068    17
CTC1_L_00617006-06
1 17531U 24665ZF  26037.47810185  .00000000  00000+0  00000-0 0  9991
2 17531  50.0000 150.0000 0000000   0.0000 240.0000  4.55247068    18
CTC1_L_00617006-07
1 17532U 22439UA  26037.47810185  .00000000  00000+0  00000-0 0  9999
2 17532  50.0000 150.0000 0000000   0.0000 276.0000  4.55247068    18
CTC1_L_00617006-08
1 17533U 22274QY  26037.47810185  .00000000  00000+0  00000-0 0  9997
2 17533  50.0000 150.0000 0000000   0.0000 312.0000  4.55247068    10
CTC1_L_00617006-09
1 17534U 23055UZ  26037.47810185  .00000000  00000+0  00000-0 0  9996
2 17534  50.0000 150.0000 0000000   0.0000 348.0000  4.55247068    10
CTC1_L_00617006-10
1 17535U 23157GC  26037.47810185  .00000000  00000+0  00000-0 0  9990
2 17535  50.0000 150.0000 0000000   0.0000  24.0000  4.55247068    12
CTC1_L_00617007-01
1 17536U 24985BT  26037.47810185  .00000000  00000+0  00000-0 0  9991
2 17536  50.0000 180.0000 0000000   0.0000  72.0000  4.55247068    19
CTC1_L_00617007-02
1 17537U 22801RC  26037.47810185  .00000000  00000+0  00000-0 0  9997
2 17537  50.0000 180.0000 0000000   0.0000 108.0000  4.55247068    10
